     2              NAVIGATION DATA                         RINEX VERSION / TYPE
CCRINEXN V1.6.0 UX  CDDIS               24-MAR-26 03:18     PGM / RUN BY / DATE 
IGS BROADCAST EPHEMERIS FILE                                COMMENT             
    0.2142D-07  0.7451D-08 -0.1192D-06  0.0000D+00          ION ALPHA           
    0.1229D+06  0.0000D+00 -0.2621D+06  0.1966D+06          ION BETA            
   -0.931322574616D-09 0.000000000000D+00   405504     2411 DELTA-UTC: A0,A1,T,W
    18                                                      LEAP SECONDS        
                                                            END OF HEADER       
14 26  3 23 23 25  4.0 0.791624188423D-08 0.000000000000D+00 0.000000000000D+00
    0.270000000000D+02 0.000000000000D+00 0.000000000000D+00 0.259923334388D+01
    0.000000000000D+00 0.690950418357D-02 0.000000000000D+00 0.515342621040D+04
    0.172800000000D+06 0.000000000000D+00 0.607035564599D+00 0.000000000000D+00
    0.942677912445D+00 0.000000000000D+00-0.274343496372D+01 0.000000000000D+00
    0.000000000000D+00 0.100000000000D+01 0.241100000000D+04 0.000000000000D+00
    0.200000000000D+01 0.000000000000D+00 0.000000000000D+00 0.270000000000D+02
    0.172410000000D+06 0.400000000000D+01 0.000000000000D+00 0.000000000000D+00
 2 26  3 24  0  0  0.0 0.640559010208D-04 0.784439180279D-11 0.000000000000D+00
    0.110000000000D+02 0.284375000000D+01 0.486805991709D-08 0.276275961854D+00
   -0.689178705215D-07 0.168589045061D-01 0.249221920967D-05 0.515357991791D+04
    0.172800000000D+06 0.353902578354D-07 0.259890651189D+01-0.199303030968D-06
    0.963132649541D+00 0.334312500000D+03-0.800323697746D+00-0.868607609565D-08
   -0.167864135072D-10 0.100000000000D+01 0.241100000000D+04 0.000000000000D+00
    0.200000000000D+01 0.000000000000D+00-0.176951289177D-07 0.110000000000D+02
    0.172038000000D+06 0.400000000000D+01 0.000000000000D+00 0.000000000000D+00
 3 26  3 24  0  0  0.0 0.529395882040D-03-0.133013600134D-10 0.000000000000D+00
    0.790000000000D+02-0.865000000000D+02 0.364015162693D-08 0.297067457865D+01
   -0.454112887383D-05 0.657715206035D-02 0.812113285065D-05 0.515362228012D+04
    0.172800000000D+06 0.428408384323D-07-0.253447345982D+01-0.162050127983D-06
    0.993743272619D+00 0.236843750000D+03 0.120255898942D+01-0.755495755145D-08
    0.175007289756D-10 0.100000000000D+01 0.241100000000D+04 0.000000000000D+00
    0.200000000000D+01 0.000000000000D+00 0.139698400000D-08 0.790000000000D+02
    0.165660000000D+06 0.400000000000D+01 0.000000000000D+00 0.000000000000D+00
 4 26  3 24  0  0  0.0 0.502071343362D-04 0.170530256582D-11 0.000000000000D+00
    0.143000000000D+03-0.265000000000D+02 0.432375153018D-08-0.348206085804D+00
   -0.156275928020D-05 0.371470034588D-02 0.796653330326D-05 0.515372399139D+04
    0.172800000000D+06 0.447034835815D-07-0.146427868671D+01-0.111758708954D-07
    0.970520830568D+00 0.230593750000D+03-0.287480218966D+01-0.790461497323D-08
    0.285369029623D-09 0.100000000000D+01 0.241100000000D+04 0.000000000000D+00
    0.200000000000D+01 0.000000000000D+00-0.465661287308D-08 0.911000000000D+03
    0.165624000000D+06 0.400000000000D+01 0.000000000000D+00 0.000000000000D+00
 5 26  3 24  0  0  0.0-0.230755656958D-03-0.568434188608D-12 0.000000000000D+00
    0.780000000000D+02-0.101656250000D+03 0.405302596766D-08 0.321873127353D+00
   -0.504776835442D-05 0.543562462553D-02 0.834837555885D-05 0.515372247124D+04
    0.172800000000D+06-0.111758708954D-07-0.259447444650D+01 0.391155481338D-07
    0.980288289856D+00 0.229406250000D+03 0.141602200197D+01-0.797890378194D-08
   -0.417874549009D-10 0.100000000000D+01 0.241100000000D+04 0.000000000000D+00
    0.200000000000D+01 0.000000000000D+00-0.107102096081D-07 0.780000000000D+02
    0.165618000000D+06 0.400000000000D+01 0.000000000000D+00 0.000000000000D+00
 6 26  3 24  0  0  0.0-0.612571835518D-03 0.454747350886D-12 0.000000000000D+00
    0.610000000000D+02-0.296250000000D+02 0.419874632321D-08-0.201130187288D+01
   -0.146962702274D-05 0.382929272018D-02 0.295974314213D-05 0.515364751816D+04
    0.172800000000D+06-0.800937414169D-07 0.271244758072D+01-0.651925802231D-07
    0.986826667623D+00 0.339687500000D+03-0.550657852950D+00-0.808140805165D-08
   -0.710743891050D-10 0.100000000000D+01 0.241100000000D+04 0.000000000000D+00
    0.200000000000D+01 0.000000000000D+00 0.372529029846D-08 0.610000000000D+02
    0.165621000000D+06 0.400000000000D+01 0.000000000000D+00 0.000000000000D+00
 7 26  3 24  0  0  0.0-0.164442230016D-03-0.466116034659D-11 0.000000000000D+00
    0.370000000000D+02-0.259687500000D+02 0.483805866742D-08-0.286232350137D+01
   -0.143982470036D-05 0.206230855547D-01 0.675581395626D-05 0.515361109734D+04
    0.172800000000D+06 0.284984707832D-06-0.455519366073D+00-0.165775418282D-06
    0.951129292593D+00 0.240468750000D+03-0.198490922444D+01-0.781318259327D-08
   -0.967897459671D-10 0.100000000000D+01 0.241100000000D+04 0.000000000000D+00
    0.200000000000D+01 0.000000000000D+00-0.107102096081D-07 0.370000000000D+02
    0.168059000000D+06 0.400000000000D+01 0.000000000000D+00 0.000000000000D+00
 8 26  3 24  0  0  0.0 0.473587308079D-03-0.613908923697D-11 0.000000000000D+00
    0.290000000000D+02 0.100750000000D+03 0.495234914236D-08-0.446592799411D-01
    0.547245144844D-05 0.115834329044D-01 0.650621950626D-05 0.515369734764D+04
    0.172800000000D+06 0.137835741043D-06 0.159102972731D+01 0.122934579849D-06
    0.943014734703D+00 0.244781250000D+03 0.531807405947D+00-0.847713882114D-08
    0.137862885400D-09 0.100000000000D+01 0.241100000000D+04 0.000000000000D+00
    0.200000000000D+01 0.000000000000D+00 0.465661287308D-08 0.290000000000D+02
    0.166008000000D+06 0.400000000000D+01 0.000000000000D+00 0.000000000000D+00
 9 26  3 24  0  0  0.0 0.764826312661D-03-0.227373675443D-11 0.000000000000D+00
    0.820000000000D+02-0.244687500000D+02 0.446447167745D-08 0.554509745511D+00
   -0.142864882946D-05 0.334690092131D-02 0.844709575176D-05 0.515376552772D+04
    0.172800000000D+06-0.409781932831D-07-0.152869017537D+01-0.763684511185D-07
    0.964714823239D+00 0.219125000000D+03 0.205731237271D+01-0.797283210046D-08
    0.326799326789D-09 0.100000000000D+01 0.241100000000D+04 0.000000000000D+00
    0.282842707634D+01 0.000000000000D+00 0.465661287308D-09 0.820000000000D+02
    0.165621000000D+06 0.400000000000D+01 0.000000000000D+00 0.000000000000D+00
10 26  3 24  0  0  0.0-0.590366777033D-03 0.113686837722D-12 0.000000000000D+00
    0.220000000000D+02-0.111562500000D+03 0.364265173107D-08 0.197571565621D+01
   -0.583752989769D-05 0.109308173414D-01 0.768341124058D-05 0.515365767670D+04
    0.172800000000D+06-0.197440385819D-06-0.253698271103D+01-0.173225998878D-06
    0.993274556592D+00 0.253562500000D+03-0.225510911990D+01-0.763817530352D-08
    0.214294640518D-10 0.100000000000D+01 0.241100000000D+04 0.000000000000D+00
    0.200000000000D+01 0.000000000000D+00 0.232830643654D-08 0.220000000000D+02
    0.172338000000D+06 0.400000000000D+01 0.000000000000D+00 0.000000000000D+00
11 26  3 24  0  0  0.0-0.397221650928D-03 0.128466126625D-10 0.000000000000D+00
    0.204000000000D+03-0.302187500000D+02 0.471055335631D-08-0.892306249006D+00
   -0.143609941006D-05 0.221605540719D-02 0.235997140408D-05 0.515358499145D+04
    0.172800000000D+06-0.149011611938D-07 0.273076848649D+01-0.223517417908D-07
    0.963704164821D+00 0.335906250000D+03-0.231101699347D+01-0.838320633705D-08
   -0.621454457501D-10 0.100000000000D+01 0.241100000000D+04 0.000000000000D+00
    0.200000000000D+01 0.000000000000D+00-0.884756445885D-08 0.204000000000D+03
    0.165618000000D+06 0.400000000000D+01 0.000000000000D+00 0.000000000000D+00
12 26  3 24  0  0  0.0-0.607951078564D-03-0.113686837722D-12 0.000000000000D+00
    0.610000000000D+02 0.622187500000D+02 0.420696095110D-08 0.273907741645D+01
    0.324472784996D-05 0.897836755030D-02 0.102780759335D-04 0.515376510811D+04
    0.172800000000D+06 0.108033418655D-06 0.662036766889D+00-0.428408384323D-07
    0.959314821027D+00 0.177531250000D+03 0.156743503405D+01-0.757995859284D-08
   -0.323942064916D-09 0.100000000000D+01 0.241100000000D+04 0.000000000000D+00
    0.200000000000D+01 0.000000000000D+00-0.125728547573D-07 0.610000000000D+02
    0.165618000000D+06 0.400000000000D+01 0.000000000000D+00 0.000000000000D+00
15 26  3 24  0  0  0.0 0.396829564124D-03 0.329691829393D-11 0.000000000000D+00
    0.910000000000D+02-0.353750000000D+02 0.505306762341D-08-0.103836496142D+01
   -0.167451798916D-05 0.166363985045D-01 0.903010368347D-05 0.515370428085D+04
    0.172800000000D+06-0.298023223877D-06-0.167329430834D+01 0.277534127235D-06
    0.942667916325D+00 0.196062500000D+03 0.150481510801D+01-0.842035074141D-08
    0.379301513716D-09 0.100000000000D+01 0.241100000000D+04 0.000000000000D+00
    0.280000000000D+01 0.000000000000D+00-0.111758708954D-07 0.910000000000D+02
    0.167118000000D+06 0.400000000000D+01 0.000000000000D+00 0.000000000000D+00
16 26  3 24  0  0  0.0 0.231542624533D-03 0.716227077646D-11 0.000000000000D+00
    0.760000000000D+02 0.416250000000D+02 0.438053960991D-08 0.992164781086D+00
    0.231713056564D-05 0.150296702050D-01 0.107940286398D-04 0.515366076660D+04
    0.172800000000D+06-0.251457095146D-06 0.678973762394D+00-0.931322574616D-08
    0.958427021395D+00 0.173812500000D+03 0.931996546289D+00-0.801319092442D-08
   -0.478234206089D-09 0.100000000000D+01 0.241100000000D+04 0.000000000000D+00
    0.200000000000D+01 0.000000000000D+00-0.107102096081D-07 0.760000000000D+02
    0.169326000000D+06 0.400000000000D+01 0.000000000000D+00 0.000000000000D+00
